STARLINK-32613          
1 61970U 24210M   26164.26811543  .00020301  00000+0  74444-3 0  9992
2 61970  43.0044   0.3745 0001712 269.0604  91.0052 15.27614761 89539
STARLINK-32610          
1 61971U 24210N   26164.26038443  .00026165  00000+0  95596-3 0  9998
2 61971  43.0033   0.3164 0006317 266.4923  93.5206 15.27599501 89536
STARLINK-32612          
1 61972U 24210P   26164.26425163  .00004285  00000+0  16506-3 0  9991
2 61972  43.0029   0.3457 0001564 278.9374  81.1300 15.27594050 89491
STARLINK-32601          
1 61973U 24210Q   26163.82439636  .00021577  00000+0  79047-3 0  9995
2 61973  43.0061   2.2066 0001039 270.6170  89.4563 15.27615430 89437
STARLINK-32593          
1 61974U 24210R   26164.27453976  .00007844  00000+0  29420-3 0  9990
2 61974  43.0016   0.4274 0001442 319.3575  40.7169 15.27589080 89496
STARLINK-32586          
1 61975U 24210S   26164.24626729  .00019309  00000+0  70902-3 0  9996
2 61975  42.9948   0.2080 0002057 264.5587  95.5030 15.27594835 89498
STARLINK-32611          
1 61976U 24210T   26164.24240205  .00020940  00000+0  76769-3 0  9998
2 61976  42.9992   0.1804 0004449 264.1388  95.8957 15.27600132 89492
STARLINK-32607          
1 61977U 24210U   26163.27575011  .00017316  00000+0  63659-3 0  9994
2 61977  43.0063   5.8230 0002443 273.4825  86.5747 15.27616436 89386
STARLINK-32606          
1 61978U 24210V   26163.83467393  .00017415  00000+0  64019-3 0  9991
2 61978  43.0054   2.2837 0000943 113.2775 246.8176 15.27614992 89437
STARLINK-32578          
1 61979U 24210W   26164.22827451  .00025325  00000+0  92610-3 0  9998
2 61979  42.9992   0.0727 0002531 276.9124  83.1440 15.27598123 89535
STARLINK-32517          
1 61980U 24210X   26164.27195765  .00024876  00000+0  90904-3 0  9995
2 61980  43.0029   0.4042 0004540 268.6089  91.4242 15.27623785 89449
STARLINK-32522          
1 61981U 24210Y   26164.23855428  .00020280  00000+0  74399-3 0  9996
2 61981  42.9897   0.1515 0002558 275.9477  84.1083 15.27598528 89495
STARLINK-32560          
1 61982U 24210Z   26163.83210733  .00017737  00000+0  65175-3 0  9991
2 61982  43.0003   2.2607 0001449 269.1124  90.9562 15.27618612 89432
OPTUS-X (ADS-01)        
1 62006U 24212A   26164.22256773 -.00000131  00000+0  00000+0 0  9992
2 62006   0.0173 357.3585 0001606 128.5975  12.1053  1.00270037  5729
STARLINK-11433 [DTC]    
1 62008U 24213A   26163.72342430  .00096460  00000+0  78961-3 0  9999
2 62008  53.1570 292.6037 0001420 143.6911 216.4203 15.69777047 89840
STARLINK-11262 [DTC]    
1 62009U 24213B   26163.63533625  .00182362  00000+0  14762-2 0  9993
2 62009  53.1577 293.4983 0000904  90.8875 269.2247 15.69727141 89827
STARLINK-11326 [DTC]    
1 62010U 24213C   26164.06139909  .00143021  00000+0  11627-2 0  9996
2 62010  53.1565 291.1675 0000608 102.3894 257.7192 15.69759104 89892
STARLINK-11330 [DTC]    
1 62011U 24213D   26163.63043005  .00178739  00000+0  14484-2 0  9998
2 62011  53.1579 293.4623 0000955  94.9084 265.2043 15.69713863 89822
STARLINK-11363 [DTC]    
1 62012U 24213E   26163.79691067  .00149729  00000+0  12158-2 0  9996
2 62012  53.1577 292.3598 0000855  98.0534 262.0581 15.69765344 89850
STARLINK-11377 [DTC]    
1 62013U 24213F   26163.66466965  .00170897  00000+0  13865-2 0  9996
2 62013  53.1573 292.9589 0001586  41.7188 318.3950 15.69711624 89830
STARLINK-11385 [DTC]    
1 62014U 24213G   26164.07121221  .00263502  00000+0  21033-2 0  9998
2 62014  53.1576 291.2340 0000800  67.0368 293.0734 15.69803344 89896
STARLINK-11396 [DTC]    
1 62015U 24213H   26163.65485395  .00212810  00000+0  17149-2 0  9996
2 62015  53.1579 292.8845 0001088  54.7282 305.3838 15.69735797 89836
STARLINK-11393 [DTC]    
1 62016U 24213J   26163.64995323  .00156863  00000+0  12749-2 0  9999
2 62016  53.1570 292.8566 0001841  29.8905 330.2217 15.69717150 89831
STARLINK-11343 [DTC]    
1 62017U 24213K   26164.06630764  .00175189  00000+0  14166-2 0  9999
2 62017  53.1580 291.2041 0001119  68.8701 291.2437 15.69776697 89896
STARLINK-11411 [DTC]    
1 62018U 24213L   26164.05649413  .00164204  00000+0  13302-2 0  9997
2 62018  53.1570 291.1381 0000613  76.3645 283.7442 15.69770009 89894
STARLINK-11404 [DTC]    
1 62019U 24213M   26163.64023308  .00179741  00000+0  14542-2 0  9990
2 62019  53.1563 293.5272 0001338  56.6517 303.4628 15.69748094 89824
STARLINK-11378 [DTC]    
1 62020U 24213N   26163.64504531  .00158705  00000+0  12890-2 0  9995
2 62020  53.1575 292.8223 0001013  65.7531 294.3593 15.69727310 89832
STARLINK-32520          
1 62021U 24213P   26164.07067432  .00023194  00000+0  79218-3 0  9999
2 62021  53.1582  85.4067 0001235 107.4668 252.6468 15.30224658 87756
STARLINK-32539          
1 62022U 24213Q   26164.01744842  .00027317  00000+0  92989-3 0  9992
2 62022  53.1598  72.8185 0001161 103.7432 256.3698 15.30240379 87924
STARLINK-32334          
1 62023U 24213R   26164.01474100  .00020351  00000+0  69705-3 0  9991
2 62023  53.1589  85.0554 0001382 108.4243 251.6908 15.30214317 87754
