OBJECT_NAME,OBJECT_ID,EPOCH,MEAN_MOTION,ECCENTRICITY,INCLINATION,RA_OF_ASC_NODE,ARG_OF_PERICENTER,MEAN_ANOMALY,EPHEMERIS_TYPE,CLASSIFICATION_TYPE,NORAD_CAT_ID,ELEMENT_SET_NO,REV_AT_EPOCH,BSTAR,MEAN_MOTION_DOT,MEAN_MOTION_DDOT
STARLINK-32613,2024-210M,2026-06-13T06:26:05.173152,15.27614761,.00017124,43.0044,0.3745,269.0604,91.0052,0,U,61970,999,8953,.74444192E-3,.20301E-3,0
STARLINK-32610,2024-210N,2026-06-13T06:14:57.214752,15.27599501,.00063174,43.0033,0.3164,266.4923,93.5206,0,U,61971,999,8953,.95596367E-3,.26165E-3,0
STARLINK-32612,2024-210P,2026-06-13T06:20:31.340832,15.27594050,.00015647,43.0029,0.3457,278.9374,81.1300,0,U,61972,999,8949,.16506201E-3,.4285E-4,0
STARLINK-32601,2024-210Q,2026-06-12T19:47:07.845504,15.27615430,.00010394,43.0061,2.2066,270.6170,89.4563,0,U,61973,999,8943,.79046914E-3,.21577E-3,0
STARLINK-32593,2024-210R,2026-06-13T06:35:20.235264,15.27589080,.00014425,43.0016,0.4274,319.3575,40.7169,0,U,61974,999,8949,.29419881E-3,.7844E-4,0
STARLINK-32586,2024-210S,2026-06-13T05:54:37.493856,15.27594835,.0002057,42.9948,0.2080,264.5587,95.5030,0,U,61975,999,8949,.70901896E-3,.19309E-3,0
STARLINK-32611,2024-210T,2026-06-13T05:49:03.537120,15.27600132,.00044495,42.9992,0.1804,264.1388,95.8957,0,U,61976,999,8949,.76769022E-3,.2094E-3,0
STARLINK-32607,2024-210U,2026-06-12T06:37:04.809504,15.27616436,.00024431,43.0063,5.8230,273.4825,86.5747,0,U,61977,999,8938,.63659139E-3,.17316E-3,0
STARLINK-32606,2024-210V,2026-06-12T20:01:55.827552,15.27614992,.00009437,43.0054,2.2837,113.2775,246.8176,0,U,61978,999,8943,.64018973E-3,.17415E-3,0
STARLINK-32578,2024-210W,2026-06-13T05:28:42.917664,15.27598123,.00025311,42.9992,0.0727,276.9124,83.1440,0,U,61979,999,8953,.92610053E-3,.25325E-3,0
STARLINK-32517,2024-210X,2026-06-13T06:31:37.140960,15.27623785,.00045405,43.0029,0.4042,268.6089,91.4242,0,U,61980,999,8944,.9090353E-3,.24876E-3,0
STARLINK-32522,2024-210Y,2026-06-13T05:43:31.089792,15.27598528,.00025587,42.9897,0.1515,275.9477,84.1083,0,U,61981,999,8949,.74399376E-3,.2028E-3,0
STARLINK-32560,2024-210Z,2026-06-12T19:58:14.073312,15.27618612,.00014494,43.0003,2.2607,269.1124,90.9562,0,U,61982,999,8943,.65175425E-3,.17737E-3,0
OPTUS-X (ADS-01),2024-212A,2026-06-13T05:20:29.851872,1.00270037,.00016069,0.0173,357.3585,128.5975,12.1053,0,U,62006,999,572,0,-.131E-5,0
STARLINK-11433 [DTC],2024-213A,2026-06-12T17:21:43.859520,15.69777047,.00014207,53.1570,292.6037,143.6911,216.4203,0,U,62008,999,8984,.78961064E-3,.9646E-3,0
STARLINK-11262 [DTC],2024-213B,2026-06-12T15:14:53.052000,15.69727141,.0000904,53.1577,293.4983,90.8875,269.2247,0,U,62009,999,8982,.14761814E-2,.182362E-2,0
STARLINK-11326 [DTC],2024-213C,2026-06-13T01:28:24.881376,15.69759104,.00006084,53.1565,291.1675,102.3894,257.7192,0,U,62010,999,8989,.11627448E-2,.143021E-2,0
STARLINK-11330 [DTC],2024-213D,2026-06-12T15:07:49.156320,15.69713863,.00009556,53.1579,293.4623,94.9084,265.2043,0,U,62011,999,8982,.14483827E-2,.178739E-2,0
STARLINK-11363 [DTC],2024-213E,2026-06-12T19:07:33.081888,15.69765344,.00008557,53.1577,292.3598,98.0534,262.0581,0,U,62012,999,8985,.12157596E-2,.149729E-2,0
STARLINK-11377 [DTC],2024-213F,2026-06-12T15:57:07.457760,15.69711624,.00015867,53.1573,292.9589,41.7188,318.3950,0,U,62013,999,8983,.13864821E-2,.170897E-2,0
STARLINK-11385 [DTC],2024-213G,2026-06-13T01:42:32.734944,15.69803344,.00008007,53.1576,291.2340,67.0368,293.0734,0,U,62014,999,8989,.21032908E-2,.263502E-2,0
STARLINK-11396 [DTC],2024-213H,2026-06-12T15:42:59.381280,15.69735797,.00010885,53.1579,292.8845,54.7282,305.3838,0,U,62015,999,8983,.17148904E-2,.21281E-2,0
STARLINK-11393 [DTC],2024-213J,2026-06-12T15:35:55.959072,15.69717150,.00018412,53.1570,292.8566,29.8905,330.2217,0,U,62016,999,8983,.12748751E-2,.156863E-2,0
STARLINK-11343 [DTC],2024-213K,2026-06-13T01:35:28.980096,15.69776697,.00011197,53.1580,291.2041,68.8701,291.2437,0,U,62017,999,8989,.14166351E-2,.175189E-2,0
STARLINK-11411 [DTC],2024-213L,2026-06-13T01:21:21.092832,15.69770009,.00006133,53.1570,291.1381,76.3645,283.7442,0,U,62018,999,8989,.13302329E-2,.164204E-2,0
STARLINK-11404 [DTC],2024-213M,2026-06-12T15:21:56.138112,15.69748094,.00013385,53.1563,293.5272,56.6517,303.4628,0,U,62019,999,8982,.1454233E-2,.179741E-2,0
STARLINK-11378 [DTC],2024-213N,2026-06-12T15:28:51.914784,15.69727310,.00010133,53.1575,292.8223,65.7531,294.3593,0,U,62020,999,8983,.12889817E-2,.158705E-2,0
STARLINK-32520,2024-213P,2026-06-13T01:41:46.261248,15.30224658,.00012358,53.1582,85.4067,107.4668,252.6468,0,U,62021,999,8775,.79217715E-3,.23194E-3,0
STARLINK-32539,2024-213Q,2026-06-13T00:25:07.543488,15.30240379,.00011618,53.1598,72.8185,103.7432,256.3698,0,U,62022,999,8792,.92988612E-3,.27317E-3,0
STARLINK-32334,2024-213R,2026-06-13T00:21:13.622400,15.30214317,.00013821,53.1589,85.0554,108.4243,251.6908,0,U,62023,999,8775,.69705351E-3,.20351E-3,0
